#dP2024 11  1  0  0  0.00000000      97 __u+U IGS20 FIT  IAC
## 2338 432000.00000000   900.00000000 60615 0.0000000000000
+  118   C06C07C08C09C10C11C12C13C14C16C19C20C21C22C23C24C25
+        C26C27C28C29C30C32C33C34C35C36C37C38C39C40C41C42C43
+        C44C45E02E03E04E05E06E07E08E09E10E11E12E13E14E15E18
+        E19E21E24E25E26E27E29E30E31E33E34E36G02G03G04G05G06
+        G07G08G09G10G11G12G13G14G15G16G17G18G19G20G21G22G23
+        G24G25G26G27G28G29G30G31G32J02J03J04R01R02R03R04R05
+        R07R08R09R11R12R14R15R16R17R18R19R20R21R22R24R26  0
++         7  7  7  7  7  7  7  7  7  7  5  6  5  5  6  6  6
++         5  5  5  6  6  6  5  6  5  6  6  6  6  6  5  6  6
++         5  6  4  4  3  4  3  4  4  4  4  4  4  4  4  4  4
++         4  4  4  4  4  4  4  4  4  4  4  4  3  3  3  3  3
++         3  3  3  3  3  3  3  3  3  3  3  3  3  3  3  3  3
++         3  4  5  3  3  3  3  3  3 11 11 11  7  6  6  6  6
++         7  7  7  6  6  6  6  7  6  6  7  7  7  6  7  8  0
%c M  cc GPS ccc cccc cccc cccc cccc ccccc ccccc ccccc ccccc
%c cc cc ccc ccc cccc cccc cccc cccc ccccc ccccc ccccc ccccc
%f  1.2500000  1.025000000  0.00000000000  0.000000000000000
%f  0.0000000  0.000000000  0.00000000000  0.000000000000000
%i    0    0    0    0      0      0      0      0         0
%i    0    0    0    0      0      0      0      0         0
/* INFORMATION & ANALYSIS CENTER (IAC)            FINAL DATA
/* S/V CLOCKS ARE ALIGNED TO GNSS TIME                      
/* G:C1WC2W R:C1PC2P E:C1XC5X C:C2IC6I J:C1CC2S             
/* PCV:IGS20_2317 OL/AL:FES2004  NONE     YN ORB:CoN CLK:CoN
*  2024 11 01  2 15  0.00000000
PC06  -7795.131089  41009.032850   7029.797823    386.700377
PC07  -6494.460321  27340.209975 -31287.759997   -241.690910
PC08 -20105.941122  26748.637652  25479.916239   -731.509014
PC09  -5039.414457  42220.879717    377.743309   -562.835149
PC10   1434.297462  29290.560997 -29782.649858   -258.556459
PC11  14063.057534  22630.720408   8353.981988    221.108183
PC12   2433.094103  25879.145741 -10099.001660   -253.642838
PC13 -12322.488602  27524.170660  29499.844534     92.593849
PC14  19424.834735  13057.560735  15159.117162   -376.600949
PC16 -10815.843254  39277.714503  11888.499710    138.289624
PC19 -25645.618189  -8453.478933  -7068.206935   -957.428408
PC20 -12041.538660 -15282.703223 -20014.355390   -918.768444
PC21 -10448.018232  13477.661155  22097.173566   -917.766054
PC22 -25489.326386   3625.132401  10775.663288    167.307538
PC23  21462.106691 -11804.683289 -13381.697722   -873.173708
PC24     97.353635  21207.962542 -18141.481784    781.208138
PC25  15347.902835   6421.783819 -22421.071625    548.552122
PC26 -14442.976142  23607.059320  -3454.390439   -370.845928
PC27   4457.305619 -21551.703843  17141.050318    390.151702
PC28  14559.511770  -6898.482956  22795.362728    303.363824
PC29 -18151.204821 -15323.281713 -14647.268650    356.199992
PC30  -9352.144115 -26124.810698   2874.970761     15.067332
PC32  10462.601223 -13526.822918 -22044.861493   -786.694220
PC33  25630.805306   8356.355735   7182.681127   -953.590433
PC34  10504.293205  25836.492939  -1175.822761    554.637468
PC35 -14685.141824   6785.213310 -22749.046750    220.248608
PC36 -15462.211510  -6360.014486  22358.530768    213.332547
PC37  15130.139379 -23245.984443   3230.927287   -892.867921
PC38 -24983.100413  28394.342067  18522.560257    188.597892
PC39 -10796.464143  37673.490302  15949.739234    -10.242408
PC40 -10367.487553  21424.893997 -34760.190090    -99.950455
PC41  25896.398148  -3107.247177  -9861.311202   -893.474378
PC42   9990.088279  15605.100025  20892.321406   -505.380164
PC43  18035.357976  16187.048026  13844.588326     90.780698
PC44  -3821.604572  21675.057478 -17181.395868    639.139348
PC45 -21432.774197  11272.588893  13836.163680   -158.776619
PE02  27712.314526   -728.334613 -10408.466911    171.312311
PE03  24362.948279   9410.967579 -13934.436616   -150.559395
PE04 -14760.858545   9101.748267  23986.135037    -71.204226
PE05  19409.714169  21969.738909   4091.247366   4797.845647
PE06  -6223.211544  16907.863638  23465.899108    -42.456061
PE07  -2771.081539 -21641.529072 -20010.638021   -150.412724
PE08  15271.192120  -8318.122473 -23961.337372   -360.623885
PE09   2763.652111  21518.182363  20124.245522   -646.868787
PE10 -11182.558788  26315.694933  -7628.152194   -666.925825
PE11  -4986.462727  29040.712567   2837.946398    995.221874
PE12 -15116.379212  20114.351987 -15594.821566  -1275.828749
PE13   5358.699010 -29023.980621  -2250.586051    -26.333059
PE14 -16909.629098  10441.953861 -22354.080357    339.641158
PE15  15281.740741 -19511.840926  16196.663666   -136.459550
PE18   -265.416134 -21292.090783  18019.366454    722.249069
PE19 -24403.923005 -11186.567610  12464.572503    864.886716
PE21 -14561.396501 -12074.685566  22766.205373   -625.732408
PE24  -7670.061485  18251.493915 -22012.139290  -1074.441096
PE25  14128.198254  12309.453538 -22911.156879     10.747357
PE26  -7926.456568 -21046.986951 -19238.630617   -224.519121
PE27   7581.516202 -18225.272486  22063.270571   -492.496108
PE29 -19552.780626 -21902.757959  -3710.432053    -42.118271
PE30  24958.409167 -13526.886182   8402.906194   -878.374060
PE31 -24953.343865  13542.268134  -8354.710368    -41.297563
PE33 -15961.749588  -1814.340505 -24851.606169     16.001570
PE34  16077.872683   1255.832894  24824.790383   -143.329628
PE36   7495.060149  21414.412625  19019.803102   -304.908680
PG02  13769.843985 -13672.586037  18447.405942   -324.636032
PG03  22262.549723 -12936.553173  -6443.192616    587.199391
PG04  13531.904646  -7894.954264 -21453.215731    471.704215
PG05 -24611.776531   3729.928275  -9533.682892   -191.594715
PG06  -6265.375757 -20936.924991 -14945.596478    -80.445067
PG07   6359.035015 -25254.264731  -3223.316745    -23.134603
PG08  21408.933902   2004.626959  15754.581294    401.026397
PG09   3830.763859 -15742.029732 -21127.902579    423.616844
PG10   6640.834151  13235.023546  22281.374727   -178.997085
PG11 -13531.283142  -7774.287165 -21462.256346   -747.772330
PG12 -24581.430244   9642.546771  -2901.646548   -549.044116
PG13 -21131.075979 -11593.026658  11189.283443    684.071622
PG14  -2342.803701 -15585.485925  21405.857192    530.041532
PG15 -21224.483991    917.972892  15512.504804    222.429250
PG16  23442.754820   2694.009404 -12969.994747   -140.066070
PG17 -10300.363245 -21167.262562  12528.697410    575.459019
PG18  -5987.588885  25667.863322  -2022.206303   -659.572641
PG19 -17436.774696 -20138.680330   2749.962008    557.401154
PG20 -18851.283145  -3603.711768 -18219.858027    369.145133
PG21  15131.553365  -6475.654258  21008.697210     98.504639
PG22 -10278.958130 -12600.733168  21347.821934    -75.838934
PG23  -8318.864373  16924.415338  18640.355005    353.755377
PG24 -14286.664459  11920.192433  18345.768323   -482.558972
PG25 -15452.515714  16822.913982 -13674.406307    499.281471
PG26  15326.156889   9098.595405 -19966.384054     41.331418
PG27  22854.274456  11890.417738   7025.288350    -34.737501
PG28   6260.625563  22338.555150 -12945.322938   -464.639747
PG29  -6300.136407  14344.873498 -21472.107575   -567.174524
PG30  -1114.734933 -25523.913131   6885.679311   -291.089116
PG31  12232.039703  12473.404532 -20139.031570   -222.512506
PG32  13853.298004  20328.912396  10495.022484   -579.749557
PJ02 -33626.490595  17660.516042 -13602.364632      0.480127
PJ03 -21585.928127  30192.635839 -15347.777021     -5.714553
PJ04 -28141.396909  26012.137357  23417.423747     21.797212
PR01  12174.247392  -6891.929652 -21332.718318    102.933225
PR02  -5535.305490 -12464.931832 -21499.141696    -25.451038
PR03 -20696.663677 -11495.297368  -9365.954225    110.505653
PR04 -23944.943189  -4604.590893   7474.339608    261.898165
PR05 -14556.576041   4877.387773  20366.004590    140.010660
PR07  20985.397561  11449.761806   9016.899385     94.077482
PR08  23986.946637   4286.829146  -7564.579730     -6.341826
PR09  -6381.240255  17810.421414 -17135.273751    217.960752
PR11  18211.021814  -5715.696036 -16903.127880      7.910712
PR12  18551.776344 -17474.718123   1247.768728     46.706839
PR14  -8400.495458  -7400.809616  22930.572674     27.152790
PR15 -18956.061603   6920.406031  15624.227039     74.524968
PR16 -18590.872339  17463.252225  -1017.172279     30.409499
PR17 -10112.424458 -19185.621899 -13453.569360    135.844425
PR18 -11125.141501  -3696.464864 -22626.544047    169.671765
PR19  -7812.466192  11789.254939 -21217.781421   -296.884062
PR20   1688.718343  25043.223411  -4623.090698   -121.287843
PR21   9659.094286  19856.096354  12747.910143   -147.530922
PR22  11352.141620   2575.956737  22728.877017      3.896755
PR24  -3013.950567 -25005.823388   4142.599810    -78.299984
PR26  24275.969893   5003.737377  -5977.420256   -497.473086
EOF
